OBJECT_NAME,OBJECT_ID,EPOCH,MEAN_MOTION,ECCENTRICITY,INCLINATION,RA_OF_ASC_NODE,ARG_OF_PERICENTER,MEAN_ANOMALY,EPHEMERIS_TYPE,CLASSIFICATION_TYPE,NORAD_CAT_ID,ELEMENT_SET_NO,REV_AT_EPOCH,BSTAR,MEAN_MOTION_DOT,MEAN_MOTION_DDOT
STARLINK-37537,2026-126A,2026-07-02T13:08:06.796896,15.75255792,.00004897,97.2863,44.2757,117.7676,242.3639,0,U,69420,999,516,.12522513E-2,.191444E-2,0
STARLINK-37585,2026-126B,2026-07-02T14:24:20.831040,15.75237877,.00007894,97.2844,44.3585,119.3909,240.7435,0,U,69421,999,517,.98227721E-3,.149279E-2,0
STARLINK-37573,2026-126C,2026-07-02T13:12:41.216256,15.75260529,.00014344,97.2844,44.2724,112.0220,248.1198,0,U,69422,999,516,.14289344E-2,.219234E-2,0
STARLINK-37820,2026-126D,2026-07-02T04:25:09.898176,15.75200427,.00018645,97.2816,44.0069,89.3986,270.7493,0,U,69423,999,511,.13185222E-2,.201336E-2,0
STARLINK-37822,2026-126E,2026-07-02T03:17:03.700032,15.75190666,.00015696,97.2831,43.9178,84.2717,275.8727,0,U,69424,999,510,.14273642E-2,.21831E-2,0
STARLINK-37836,2026-126F,2026-07-02T14:00:01.999872,15.75221076,.00016662,97.2835,44.4349,93.5658,24.8493,0,U,69425,999,518,-.22053156E-3,-.32942E-3,0
STARLINK-37850,2026-126G,2026-07-02T02:56:44.024064,15.75193456,.00016079,97.2829,43.9382,91.9243,268.2206,0,U,69426,999,515,.15868563E-2,.24347E-2,0
STARLINK-37823,2026-126H,2026-07-02T14:06:33.801408,15.75254776,.00024894,97.2841,44.3767,100.6347,259.5199,0,U,69427,999,517,.10701231E-2,.163037E-2,0
STARLINK-37834,2026-126J,2026-07-02T08:12:50.603904,15.75257949,.00015264,97.2844,44.0979,84.8606,275.2833,0,U,69428,999,513,.17504589E-2,.270187E-2,0
STARLINK-37857,2026-126K,2026-07-02T14:02:29.874336,15.75291679,.00018838,97.2834,44.3798,127.9595,232.1841,0,U,69429,999,517,.1754662E-2,.271267E-2,0
STARLINK-37866,2026-126L,2026-07-02T14:00:01.999872,15.75223562,.0001461,97.2837,44.4404,95.6997,34.7158,0,U,69430,999,523,-.28997273E-3,-.43226E-3,0
STARLINK-37555,2026-126M,2026-07-02T13:45:13.239360,15.75306890,.00022188,97.2837,44.3964,126.4986,233.6484,0,U,69431,999,522,.1957498E-2,.304016E-2,0
STARLINK-37870,2026-126N,2026-07-02T13:40:08.422752,15.75294692,.00017761,97.2835,44.4013,114.1881,245.9570,0,U,69432,999,517,.1895107E-2,.293809E-2,0
STARLINK-37872,2026-126P,2026-07-02T14:00:01.999872,15.75267545,.00021136,97.2841,44.4547,92.4214,71.9266,0,U,69433,999,518,-.36795276E-3,-.54851E-3,0
STARLINK-37815,2026-126Q,2026-07-02T03:49:34.768416,15.75213213,.00014965,97.2846,43.8868,84.7350,275.4086,0,U,69434,999,510,.11801736E-2,.179838E-2,0
STARLINK-37801,2026-126R,2026-07-02T08:03:41.842944,15.75220846,.00017146,97.2856,44.1066,81.8992,278.2468,0,U,69435,999,518,.12527415E-2,.191225E-2,0
STARLINK-37800,2026-126S,2026-07-02T14:12:39.671712,15.75260544,.00018701,97.2835,44.3701,96.1912,263.9567,0,U,69436,999,517,.15032567E-2,.230966E-2,0
STARLINK-37792,2026-126T,2026-07-02T13:11:51.733248,15.79987436,.00021291,97.2846,44.4283,145.9343,214.2062,0,U,69437,999,522,.95915226E-3,.180513E-2,0
STARLINK-37783,2026-126U,2026-07-02T14:00:01.999872,15.75220238,.00013944,97.2837,44.4496,88.4643,63.9462,0,U,69438,999,523,-.29495874E-3,-.43956E-3,0
STARLINK-37771,2026-126V,2026-07-02T13:04:33.243744,15.75248300,.00018252,97.2850,44.2800,185.0355,175.0892,0,U,69439,999,516,.13410518E-2,.205298E-2,0
STARLINK-37747,2026-126W,2026-07-02T13:51:19.459584,15.75218572,.00013154,97.2828,44.3901,100.0976,260.0437,0,U,69440,999,517,.97543868E-3,.148095E-2,0
STARLINK-37629,2026-127A,2026-07-02T11:16:30.509184,15.75347182,.00015239,53.1582,186.4605,101.8082,258.3109,0,U,69443,999,381,.13439336E-2,.211601E-2,0
STARLINK-37509,2026-127B,2026-07-02T03:33:39.804768,15.75307578,.00027914,53.1593,188.0106,34.6719,325.4483,0,U,69444,999,376,.13684697E-2,.215212E-2,0
STARLINK-37641,2026-127C,2026-07-02T10:50:22.530624,15.75234022,.0001714,53.1575,186.3396,65.0311,295.0887,0,U,69445,999,381,.98269392E-3,.152713E-2,0
STARLINK-37522,2026-127D,2026-07-02T11:09:59.330592,15.75289113,.00011932,53.1597,186.4301,88.4980,271.6177,0,U,69446,999,381,.10268249E-2,.160123E-2,0
STARLINK-37640,2026-127E,2026-07-02T12:02:08.299680,15.75284685,.00016224,53.1590,185.9341,67.4589,292.6603,0,U,69447,999,382,.86784749E-3,.134801E-2,0
STARLINK-37572,2026-127F,2026-07-02T14:00:07.170048,15.75290893,.00014289,53.1587,185.7404,75.8447,284.2732,0,U,69448,999,383,.12007172E-2,.187988E-2,0
STARLINK-37643,2026-127G,2026-07-02T09:32:34.103616,15.75280533,.00015962,53.1595,186.7169,82.4022,277.7180,0,U,69449,999,380,.1229801E-2,.192576E-2,0
STARLINK-37601,2026-127H,2026-07-02T12:34:48.966240,15.75285569,.00013603,53.1597,186.0833,105.1460,254.9711,0,U,69450,999,382,.10567271E-2,.164873E-2,0
