STARLINK-37537          
1 69420U 26126A   26183.54730089  .00191444  00000+0  12523-2 0  9991
2 69420  97.2863  44.2757 0000489 117.7676 242.3639 15.75255792  5162
STARLINK-37585          
1 69421U 26126B   26183.60024110  .00149279  00000+0  98228-3 0  9996
2 69421  97.2844  44.3585 0000789 119.3909 240.7435 15.75237877  5173
STARLINK-37573          
1 69422U 26126C   26183.55047704  .00219234  00000+0  14289-2 0  9998
2 69422  97.2844  44.2724 0001434 112.0220 248.1198 15.75260529  5169
STARLINK-37820          
1 69423U 26126D   26183.18414234  .00201336  00000+0  13185-2 0  9992
2 69423  97.2816  44.0069 0001864  89.3986 270.7493 15.75200427  5116
STARLINK-37822          
1 69424U 26126E   26183.13684838  .00218310  00000+0  14274-2 0  9997
2 69424  97.2831  43.9178 0001569  84.2717 275.8727 15.75190666  5109
STARLINK-37836          
1 69425U 26126F   26183.58335648 -.00032942  00000+0 -22053-3 0  9991
2 69425  97.2835  44.4349 0001666  93.5658  24.8493 15.75221076  5185
STARLINK-37850          
1 69426U 26126G   26183.12273176  .00243470  00000+0  15869-2 0  9993
2 69426  97.2829  43.9382 0001607  91.9243 268.2206 15.75193456  5150
STARLINK-37823          
1 69427U 26126H   26183.58789122  .00163037  00000+0  10701-2 0  9997
2 69427  97.2841  44.3767 0002489 100.6347 259.5199 15.75254776  5178
STARLINK-37834          
1 69428U 26126J   26183.34225236  .00270187  00000+0  17505-2 0  9997
2 69428  97.2844  44.0979 0001526  84.8606 275.2833 15.75257949  5137
STARLINK-37857          
1 69429U 26126K   26183.58506799  .00271267  00000+0  17547-2 0  9996
2 69429  97.2834  44.3798 0001883 127.9595 232.1841 15.75291679  5174
STARLINK-37866          
1 69430U 26126L   26183.58335648 -.00043226  00000+0 -28997-3 0  9997
2 69430  97.2837  44.4404 0001461  95.6997  34.7158 15.75223562  5233
STARLINK-37555          
1 69431U 26126M   26183.57306990  .00304016  00000+0  19575-2 0  9991
2 69431  97.2837  44.3964 0002218 126.4986 233.6484 15.75306890  5223
STARLINK-37870          
1 69432U 26126N   26183.56954193  .00293809  00000+0  18951-2 0  9999
2 69432  97.2835  44.4013 0001776 114.1881 245.9570 15.75294692  5176
STARLINK-37872          
1 69433U 26126P   26183.58335648 -.00054851  00000+0 -36795-3 0  9991
2 69433  97.2841  44.4547 0002113  92.4214  71.9266 15.75267545  5187
STARLINK-37815          
1 69434U 26126Q   26183.15943019  .00179838  00000+0  11802-2 0  9994
2 69434  97.2846  43.8868 0001496  84.7350 275.4086 15.75213213  5106
STARLINK-37801          
1 69435U 26126R   26183.33590096  .00191225  00000+0  12527-2 0  9997
2 69435  97.2856  44.1066 0001714  81.8992 278.2468 15.75220846  5188
STARLINK-37800          
1 69436U 26126S   26183.59212583  .00230966  00000+0  15033-2 0  9999
2 69436  97.2835  44.3701 0001870  96.1912 263.9567 15.75260544  5177
STARLINK-37792          
1 69437U 26126T   26183.54990432  .00180513  00000+0  95915-3 0  9991
2 69437  97.2846  44.4283 0002129 145.9343 214.2062 15.79987436  5220
STARLINK-37783          
1 69438U 26126U   26183.58335648 -.00043956  00000+0 -29496-3 0  9990
2 69438  97.2837  44.4496 0001394  88.4643  63.9462 15.75220238  5234
STARLINK-37771          
1 69439U 26126V   26183.54482921  .00205298  00000+0  13411-2 0  9990
2 69439  97.2850  44.2800 0001825 185.0355 175.0892 15.75248300  5164
STARLINK-37747          
1 69440U 26126W   26183.57730856  .00148095  00000+0  97544-3 0  9999
2 69440  97.2828  44.3901 0001315 100.0976 260.0437 15.75218572  5173
STARLINK-37629          
1 69443U 26127A   26183.46979756  .00211601  00000+0  13439-2 0  9999
2 69443  53.1582 186.4605 0001523 101.8082 258.3109 15.75347182  3816
STARLINK-37509          
1 69444U 26127B   26183.14837737  .00215212  00000+0  13685-2 0  9992
2 69444  53.1593 188.0106 0002791  34.6719 325.4483 15.75307578  3761
STARLINK-37641          
1 69445U 26127C   26183.45164966  .00152713  00000+0  98269-3 0  9992
2 69445  53.1575 186.3396 0001714  65.0311 295.0887 15.75234022  3813
STARLINK-37522          
1 69446U 26127D   26183.46527003  .00160123  00000+0  10268-2 0  9995
2 69446  53.1597 186.4301 0001193  88.4980 271.6177 15.75289113  3810
STARLINK-37640          
1 69447U 26127E   26183.50148495  .00134801  00000+0  86785-3 0  9997
2 69447  53.1590 185.9341 0001622  67.4589 292.6603 15.75284685  3828
STARLINK-37572          
1 69448U 26127F   26183.58341632  .00187988  00000+0  12007-2 0  9993
2 69448  53.1587 185.7404 0001428  75.8447 284.2732 15.75290893  3832
STARLINK-37643          
1 69449U 26127G   26183.39761694  .00192576  00000+0  12298-2 0  9998
2 69449  53.1595 186.7169 0001596  82.4022 277.7180 15.75280533  3801
STARLINK-37601          
1 69450U 26127H   26183.52417785  .00164873  00000+0  10567-2 0  9990
2 69450  53.1597 186.0833 0001360 105.1460 254.9711 15.75285569  3827
